{
  "type": "FeatureCollection",
  "features": [
    {
      "type": "Feature",
      "properties": {
        "norad_id": 32376,
        "name": "COSMO-SKYMED 2",
        "group": "resource",
        "lat": -29.446443250463727,
        "lon": -179.45367545827295,
        "alt_km": 628.8381112688648,
        "timestamp": "2025-12-20T20:38:44.100724+00:00",
        "meta_object_name": "COSMO-SKYMED 2",
        "meta_object_id": "2007-059A",
        "meta_epoch": "2025-12-20T14:17:54.707712",
        "meta_mean_motion": 14.82151387,
        "meta_eccentricity": 0.00013487,
        "meta_inclination": 97.8804,
        "meta_ra_of_asc_node": 175.8013,
        "meta_arg_of_pericenter": 83.1432,
        "meta_mean_anomaly": 276.9934,
        "meta_ephemeris_type": 0,
        "meta_classification_type": "U",
        "meta_norad_cat_id": 32376,
        "meta_element_set_no": 999,
        "meta_rev_at_epoch": 97554,
        "meta_bstar": 5.0483296e-05,
        "meta_mean_motion_dot": 3.5e-06,
        "meta_mean_motion_ddot": 0,
        "tle_line1": "1 32376U 07059A   25354.59577208  .00000350  00000+0  50483-4 0  9995",
        "tle_line2": "2 32376  97.8804 175.8013 0001348  83.1432 276.9934 14.82151387975541"
      },
      "geometry": {
        "type": "Point",
        "coordinates": [
          -179.45367545827295,
          -29.446443250463727
        ]
      }
    },
    {
      "type": "Feature",
      "properties": {
        "norad_id": 32382,
        "name": "RADARSAT-2",
        "group": "resource",
        "lat": -16.686128857512,
        "lon": 176.73893299861643,
        "alt_km": 796.9419041150923,
        "timestamp": "2025-12-20T20:38:44.100734+00:00",
        "meta_object_name": "RADARSAT-2",
        "meta_object_id": "2007-061A",
        "meta_epoch": "2025-12-20T13:00:40.338720",
        "meta_mean_motion": 14.29984385,
        "meta_eccentricity": 0.00011287,
        "meta_inclination": 98.579,
        "meta_ra_of_asc_node": 359.019,
        "meta_arg_of_pericenter": 83.5095,
        "meta_mean_anomaly": 276.6216,
        "meta_ephemeris_type": 0,
        "meta_classification_type": "U",
        "meta_norad_cat_id": 32382,
        "meta_element_set_no": 999,
        "meta_rev_at_epoch": 94042,
        "meta_bstar": 7.8207132e-05,
        "meta_mean_motion_dot": 1.58e-06,
        "meta_mean_motion_ddot": 0,
        "tle_line1": "1 32382U 07061A   25354.54213355  .00000158  00000+0  78207-4 0  9990",
        "tle_line2": "2 32382  98.5790 359.0190 0001128  83.5095 276.6216 14.29984385940429"
      },
      "geometry": {
        "type": "Point",
        "coordinates": [
          176.73893299861643,
          -16.686128857512
        ]
      }
    },
    {
      "type": "Feature",
      "properties": {
        "norad_id": 32783,
        "name": "CARTOSAT-2A",
        "group": "resource",
        "lat": 16.178476620830647,
        "lon": 42.15362169486978,
        "alt_km": 627.1160918194582,
        "timestamp": "2025-12-20T20:38:44.100745+00:00",
        "meta_object_name": "CARTOSAT-2A",
        "meta_object_id": "2008-021A",
        "meta_epoch": "2025-12-20T14:04:37.411104",
        "meta_mean_motion": 14.78952527,
        "meta_eccentricity": 0.00112471,
        "meta_inclination": 97.7924,
        "meta_ra_of_asc_node": 44.1654,
        "meta_arg_of_pericenter": 339.2332,
        "meta_mean_anomaly": 20.8421,
        "meta_ephemeris_type": 0,
        "meta_classification_type": "U",
        "meta_norad_cat_id": 32783,
        "meta_element_set_no": 999,
        "meta_rev_at_epoch": 95240,
        "meta_bstar": 0.00017271779,
        "meta_mean_motion_dot": 1.225e-05,
        "meta_mean_motion_ddot": 0,
        "tle_line1": "1 32783U 08021A   25354.58654411  .00001225  00000+0  17272-3 0  9998",
        "tle_line2": "2 32783  97.7924  44.1654 0011247 339.2332  20.8421 14.78952527952404"
      },
      "geometry": {
        "type": "Point",
        "coordinates": [
          42.15362169486978,
          16.178476620830647
        ]
      }
    },
    {
      "type": "Feature",
      "properties": {
        "norad_id": 33320,
        "name": "HUANJING 1A (HJ-1A)",
        "group": "resource",
        "lat": 11.712122069559676,
        "lon": -18.77798295841085,
        "alt_km": 606.2547207058769,
        "timestamp": "2025-12-20T20:38:44.100755+00:00",
        "meta_object_name": "HUANJING 1A (HJ-1A)",
        "meta_object_id": "2008-041A",
        "meta_epoch": "2025-12-20T14:07:01.750944",
        "meta_mean_motion": 14.83416319,
        "meta_eccentricity": 0.00195958,
        "meta_inclination": 97.6535,
        "meta_ra_of_asc_node": 342.5588,
        "meta_arg_of_pericenter": 9.4964,
        "meta_mean_anomaly": 350.6617,
        "meta_ephemeris_type": 0,
        "meta_classification_type": "U",
        "meta_norad_cat_id": 33320,
        "meta_element_set_no": 999,
        "meta_rev_at_epoch": 93192,
        "meta_bstar": 0.00013595282,
        "meta_mean_motion_dot": 1.068e-05,
        "meta_mean_motion_ddot": 0,
        "tle_line1": "1 33320U 08041A   25354.58821471  .00001068  00000+0  13595-3 0  9999",
        "tle_line2": "2 33320  97.6535 342.5588 0019595   9.4964 350.6617 14.83416319931926"
      },
      "geometry": {
        "type": "Point",
        "coordinates": [
          -18.77798295841085,
          11.712122069559676
        ]
      }
    },
    {
      "type": "Feature",
      "properties": {
        "norad_id": 33321,
        "name": "HUANJING 1B (HJ-1B)",
        "group": "resource",
        "lat": -36.05822827063347,
        "lon": 160.88709435467956,
        "alt_km": 652.5631499749888,
        "timestamp": "2025-12-20T20:38:44.100766+00:00",
        "meta_object_name": "HUANJING 1B (HJ-1B)",
        "meta_object_id": "2008-041B",
        "meta_epoch": "2025-12-20T14:48:59.033952",
        "meta_mean_motion": 14.82841667,
        "meta_eccentricity": 0.00380245,
        "meta_inclination": 97.6395,
        "meta_ra_of_asc_node": 346.2632,
        "meta_arg_of_pericenter": 50.889,
        "meta_mean_anomaly": 309.5695,
        "meta_ephemeris_type": 0,
        "meta_classification_type": "U",
        "meta_norad_cat_id": 33321,
        "meta_element_set_no": 999,
        "meta_rev_at_epoch": 93194,
        "meta_bstar": 0.00016386076,
        "meta_mean_motion_dot": 1.291e-05,
        "meta_mean_motion_ddot": 0,
        "tle_line1": "1 33321U 08041B   25354.61734993  .00001291  00000+0  16386-3 0  9995",
        "tle_line2": "2 33321  97.6395 346.2632 0038024  50.8890 309.5695 14.82841667931946"
      },
      "geometry": {
        "type": "Point",
        "coordinates": [
          160.88709435467956,
          -36.05822827063347
        ]
      }
    },
    {
      "type": "Feature",
      "properties": {
        "norad_id": 33331,
        "name": "GEOEYE 1",
        "group": "resource",
        "lat": 34.04070159356475,
        "lon": 60.500690347903586,
        "alt_km": 677.4602957893176,
        "timestamp": "2025-12-20T20:38:44.100777+00:00",
        "meta_object_name": "GEOEYE 1",
        "meta_object_id": "2008-042A",
        "meta_epoch": "2025-12-20T12:17:28.273056",
        "meta_mean_motion": 14.64709875,
        "meta_eccentricity": 0.00028208,
        "meta_inclination": 98.1244,
        "meta_ra_of_asc_node": 65.6948,
        "meta_arg_of_pericenter": 250.9086,
        "meta_mean_anomaly": 109.1812,
        "meta_ephemeris_type": 0,
        "meta_classification_type": "U",
        "meta_norad_cat_id": 33331,
        "meta_element_set_no": 999,
        "meta_rev_at_epoch": 92399,
        "meta_bstar": 8.4714848e-05,
        "meta_mean_motion_dot": 4.03e-06,
        "meta_mean_motion_ddot": 0,
        "tle_line1": "1 33331U 08042A   25354.51213279  .00000403  00000+0  84715-4 0  9991",
        "tle_line2": "2 33331  98.1244  65.6948 0002820 250.9086 109.1812 14.64709875923998"
      },
      "geometry": {
        "type": "Point",
        "coordinates": [
          60.500690347903586,
          34.04070159356475
        ]
      }
    },
    {
      "type": "Feature",
      "properties": {
        "norad_id": 33396,
        "name": "THEOS",
        "group": "resource",
        "lat": 27.93814959418813,
        "lon": 48.114845687530924,
        "alt_km": 823.4039108535198,
        "timestamp": "2025-12-20T20:38:44.100787+00:00",
        "meta_object_name": "THEOS",
        "meta_object_id": "2008-049A",
        "meta_epoch": "2025-12-20T15:26:23.603136",
        "meta_mean_motion": 14.2009938,
        "meta_eccentricity": 0.00011849,
        "meta_inclination": 98.5862,
        "meta_ra_of_asc_node": 52.5001,
        "meta_arg_of_pericenter": 94.3634,
        "meta_mean_anomaly": 265.7678,
        "meta_ephemeris_type": 0,
        "meta_classification_type": "U",
        "meta_norad_cat_id": 33396,
        "meta_element_set_no": 999,
        "meta_rev_at_epoch": 89262,
        "meta_bstar": 0.00022079058,
        "meta_mean_motion_dot": 4.28e-06,
        "meta_mean_motion_ddot": 0,
        "tle_line1": "1 33396U 08049A   25354.64332874  .00000428  00000+0  22079-3 0  9997",
        "tle_line2": "2 33396  98.5862  52.5001 0001184  94.3634 265.7678 14.20099380892624"
      },
      "geometry": {
        "type": "Point",
        "coordinates": [
          48.114845687530924,
          27.93814959418813
        ]
      }
    }
  ]
}